{
  "links" : {
    "next" : "https://api.nasa.gov/neo/rest/v1/feed?start_date=2007-03-23&end_date=2007-03-23&detailed=true&api_key=t0TVs3DtDT2H8Oy2Zy8m2eVrNsAVKAexjcZXUckd",
    "prev" : "https://api.nasa.gov/neo/rest/v1/feed?start_date=2007-03-21&end_date=2007-03-21&detailed=true&api_key=t0TVs3DtDT2H8Oy2Zy8m2eVrNsAVKAexjcZXUckd",
    "self" : "https://api.nasa.gov/neo/rest/v1/feed?start_date=2007-03-22&end_date=2007-03-22&detailed=true&api_key=t0TVs3DtDT2H8Oy2Zy8m2eVrNsAVKAexjcZXUckd"
  },
  "element_count" : 5,
  "near_earth_objects" : {
    "2007-03-22" : [ {
      "links" : {
        "self" : "https://api.nasa.gov/neo/rest/v1/neo/3375232?api_key=t0TVs3DtDT2H8Oy2Zy8m2eVrNsAVKAexjcZXUckd"
      },
      "neo_reference_id" : "3375232",
      "name" : "(2007 HG44)",
      "nasa_jpl_url" : "http://ssd.jpl.nasa.gov/sbdb.cgi?sstr=3375232",
      "absolute_magnitude_h" : 19.3,
      "estimated_diameter" : {
        "kilometers" : {
          "estimated_diameter_min" : 0.3669061375,
          "estimated_diameter_max" : 0.8204270649
        },
        "meters" : {
          "estimated_diameter_min" : 366.9061375314,
          "estimated_diameter_max" : 820.4270648822
        },
        "miles" : {
          "estimated_diameter_min" : 0.2279848336,
          "estimated_diameter_max" : 0.5097895857
        },
        "feet" : {
          "estimated_diameter_min" : 1203.7603322587,
          "estimated_diameter_max" : 2691.6899315481
        }
      },
      "is_potentially_hazardous_asteroid" : false,
      "close_approach_data" : [ {
        "close_approach_date" : "2007-03-22",
        "epoch_date_close_approach" : 1174546800000,
        "relative_velocity" : {
          "kilometers_per_second" : "23.0108976315",
          "kilometers_per_hour" : "82839.2314734176",
          "miles_per_hour" : "51473.0769119133"
        },
        "miss_distance" : {
          "astronomical" : "0.1954961918",
          "lunar" : "76.0480194092",
          "kilometers" : "29245814",
          "miles" : "18172506"
        },
        "orbiting_body" : "Earth"
      } ],
      "orbital_data" : {
        "orbit_id" : "17",
        "orbit_determination_date" : "2017-04-10 11:57:27",
        "orbit_uncertainty" : "0",
        "minimum_orbit_intersection" : ".0909677",
        "jupiter_tisserand_invariant" : "3.056",
        "epoch_osculation" : "2458000.5",
        "eccentricity" : ".7176480953650038",
        "semi_major_axis" : "2.470338576775716",
        "inclination" : "8.373427433230569",
        "ascending_node_longitude" : "64.48216723998289",
        "orbital_period" : "1418.18584851383",
        "perihelion_distance" : ".6975048022459289",
        "perihelion_argument" : "33.26394417529276",
        "aphelion_distance" : "4.243172351305502",
        "perihelion_time" : "2458391.157309437703",
        "mean_anomaly" : "260.8334263489151",
        "mean_motion" : ".253845432442622",
        "equinox" : "J2000"
      }
    }, {
      "links" : {
        "self" : "https://api.nasa.gov/neo/rest/v1/neo/3559842?api_key=t0TVs3DtDT2H8Oy2Zy8m2eVrNsAVKAexjcZXUckd"
      },
      "neo_reference_id" : "3559842",
      "name" : "(2011 EO51)",
      "nasa_jpl_url" : "http://ssd.jpl.nasa.gov/sbdb.cgi?sstr=3559842",
      "absolute_magnitude_h" : 21.1,
      "estimated_diameter" : {
        "kilometers" : {
          "estimated_diameter_min" : 0.160160338,
          "estimated_diameter_max" : 0.358129403
        },
        "meters" : {
          "estimated_diameter_min" : 160.1603379786,
          "estimated_diameter_max" : 358.1294030194
        },
        "miles" : {
          "estimated_diameter_min" : 0.0995189894,
          "estimated_diameter_max" : 0.2225312253
        },
        "feet" : {
          "estimated_diameter_min" : 525.4604432536,
          "estimated_diameter_max" : 1174.9652706022
        }
      },
      "is_potentially_hazardous_asteroid" : true,
      "close_approach_data" : [ {
        "close_approach_date" : "2007-03-22",
        "epoch_date_close_approach" : 1174546800000,
        "relative_velocity" : {
          "kilometers_per_second" : "39.3301751831",
          "kilometers_per_hour" : "141588.6306590556",
          "miles_per_hour" : "87977.6688670115"
        },
        "miss_distance" : {
          "astronomical" : "0.4056353159",
          "lunar" : "157.7921447754",
          "kilometers" : "60682180",
          "miles" : "37706160"
        },
        "orbiting_body" : "Earth"
      } ],
      "orbital_data" : {
        "orbit_id" : "13",
        "orbit_determination_date" : "2017-04-06 08:54:08",
        "orbit_uncertainty" : "1",
        "minimum_orbit_intersection" : ".0251441",
        "jupiter_tisserand_invariant" : "3.997",
        "epoch_osculation" : "2458000.5",
        "eccentricity" : ".7860699080133662",
        "semi_major_axis" : "1.565468741150809",
        "inclination" : "6.759681515130592",
        "ascending_node_longitude" : "175.2342224205059",
        "orbital_period" : "715.4265072084556",
        "perihelion_distance" : ".3349008717965924",
        "perihelion_argument" : "227.2554115934944",
        "aphelion_distance" : "2.796036610505025",
        "perihelion_time" : "2457720.392389765005",
        "mean_anomaly" : "140.9491242895988",
        "mean_motion" : ".5031963400471349",
        "equinox" : "J2000"
      }
    } ]
  }
}